{
  "type": "FeatureCollection",
  "name": "riachuelo",
  "source": "Local LineString derived from the official barrios_caba.json southern boundary where Riachuelo is listed as a barrio limit.",
  "features": [
    {
      "type": "Feature",
      "properties": {
        "name": "Riachuelo",
        "source": "Derived from src/assets/barrios_caba.json",
        "version": "2026-07-17"
      },
      "geometry": {
        "type": "LineString",
        "coordinates": [
          [-58.48336, -34.68896],
          [-58.47685, -34.68309],
          [-58.4654, -34.69023],
          [-58.45542, -34.68448],
          [-58.44195, -34.6822],
          [-58.43067, -34.66875],
          [-58.42404, -34.66205],
          [-58.41222, -34.6584],
          [-58.40089, -34.6603],
          [-58.3914, -34.64209],
          [-58.38153, -34.65754],
          [-58.37083, -34.65422],
          [-58.35982, -34.64597],
          [-58.35332, -34.63526]
        ]
      }
    }
  ]
}
